
STARLINK-32320          
1 61638U 24191T   25018.38368113  .00000061  00000+0  87358-5 0  9992
2 61638  43.0026 350.9265 0001107 227.3658 132.7105 15.40685419 14651
STARLINK-32341          
1 61639U 24191U   25017.97229702  .00000468  00000+0  18466-4 0  9991
2 61639  43.0049 352.9969 0001089 248.2425 111.8316 15.40709380 14536
STARLINK-32339          
1 61640U 24191V   25018.38143744  .00006442  00000+0  16144-3 0  9998
2 61640  43.0039 350.9140 0000896 275.7179  84.3576 15.40680622 14609
STARLINK-32327          
1 61641U 24191W   25018.37247100  .00002338  00000+0  63211-4 0  9997
2 61641  43.0079 350.8482 0001918 282.9905  77.0737 15.40704213 14583
STARLINK-32264          
1 61642U 24191X   25018.33005460 -.00002062  00000+0 -42131-4 0  9999
2 61642  43.0027 351.3886 0000989 246.4060 113.6693 15.40684407 14585
STARLINK-32337          
1 61643U 24191Y   25017.97900037 -.00020442  00000+0 -48150-3 0  9991
2 61643  43.0027 353.0541 0002453 270.3725  89.6851 15.40814328 14603
STARLINK-32238          
1 61661U 24193A   25017.88594739  .00001978  00000+0  59415-4 0  9999
2 61661  53.1585 223.2010 0000985  96.7251 263.3865 15.39615934 12856
STARLINK-32310          
1 61662U 24193B   25017.87666615 -.00001855  00000+0 -36416-4 0  9994
2 61662  53.1580 223.1414 0001148  97.2437 262.8698 15.39605693 12852
STARLINK-32308          
1 61663U 24193C   25017.85311138  .00000449  00000+0  21213-4 0  9995
2 61663  53.1581 222.9925 0001002  93.6088 266.5031 15.39619930 12850
STARLINK-32301          
1 61664U 24193D   25017.83032512  .00000216  00000+0  15387-4 0  9997
2 61664  53.1592 223.5641 0001210  74.1993 285.9145 15.39615187 12845
STARLINK-32439          
1 61665U 24193E   25018.25001157 -.01532866  00000+0 -53487-1 0  9990
2 61665  53.1600 221.0249 0001244  71.6043  18.9250 15.32540206 14090
STARLINK-32428          
1 61666U 24193F   25018.25686632  .00002465  00000+0  71593-4 0  9993
2 61666  53.1565 221.2466 0000988  89.7576 270.3542 15.39610159 14134
STARLINK-32414          
1 61667U 24193G   25018.27974373 -.00004019  00000+0 -90486-4 0  9999
2 61667  53.1593 221.3913 0001371  91.2380 268.8782 15.39635296 14139
STARLINK-32441          
1 61668U 24193H   25017.88561618  .00000770  00000+0  29236-4 0  9993
2 61668  53.1586 223.1976 0001220  86.6335 273.4809 15.39620124 12855
STARLINK-32400          
1 61669U 24193J   25017.87029132  .00006977  00000+0  21597-3 0  9999
2 61669  53.1596 222.3830 0000870 148.7557 211.3497 15.34617029 12863
STARLINK-32449          
1 61670U 24193K   25017.88097481 -.00000215  00000+0  46178-5 0  9998
2 61670  53.1585 223.1685 0001226 100.7735 259.3408 15.39621468 12852
STARLINK-32453          
1 61671U 24193L   25017.81141750  .00000386  00000+0  19634-4 0  9995
2 61671  53.1601 223.4446 0001452 108.9433 251.1729 15.39622692 12841
STARLINK-32443          
1 61672U 24193M   25017.87201921  .00000381  00000+0  19512-4 0  9999
2 61672  53.1579 223.1127 0001439 106.4313 253.6850 15.39624083 12853
STARLINK-32417          
1 61673U 24193N   25017.80212776  .00000197  00000+0  14899-4 0  9991
2 61673  53.1580 223.3853 0001060  96.4922 263.6204 15.39620658 12845
STARLINK-32326          
1 61674U 24193P   25017.86240971 -.00001089  00000+0 -17252-4 0  9995
2 61674  53.1578 223.0510 0001128  83.6504 276.4629 15.39613592 12852
STARLINK-32294          
1 61675U 24193Q   25017.85810498 -.00000908  00000+0 -12726-4 0  9992
2 61675  53.1578 223.0258 0001207  93.2287 266.8856 15.39605040 12859
STARLINK-32309          
1 61676U 24193R   25017.77924134  .00002386  00000+0  69601-4 0  9991
2 61676  53.1578 223.2417 0001176  91.4493 268.6647 15.39623859 12848
STARLINK-32323          
1 61677U 24193S   25017.85344573  .00000251  00000+0  16256-4 0  9991
2 61677  53.1575 222.9920 0000662  99.9534 260.1546 15.39617336 12858
STARLINK-32363          
1 61678U 24193T   25017.84879475  .00002584  00000+0  74532-4 0  9997
2 61678  53.1569 222.9646 0000870  87.3633 272.7472 15.39624976 12854
STARLINK-32395          
1 61679U 24193U   25018.58334491 -.00853184  00000+0 -30638-1 0  9992
2 61679  53.1604 219.4803 0000997  99.8258  24.7713 15.30834634 14144
STARLINK-32412          
1 61680U 24193V   25018.58334491  .00031173  00000+0  10609-2 0  9995
2 61680  53.1609 219.3981 0001434  88.0975  77.5887 15.30178752 14195
STARLINK-32426          
1 61681U 24193W   25018.58334491  .00002503  00000+0  96616-4 0  9995
2 61681  53.1607 219.4449 0001236  78.2992  64.1239 15.30190405 14141
STARLINK-32429          
1 61682U 24193X   25018.58334491 -.01503862  00000+0 -49268-1 0  9991
2 61682  53.1592 218.9078 0001028  78.7998 332.7999 15.34455741 14156
SHENZHOU-19 (SZ-19)     
1 61683U 24194A   25017.93538594  .00017910  00000+0  23471-3 0  9992
2 61683  41.4639 214.8435 0003891 310.1303  49.9194 15.58147362212465
STARLINK-11335 [DTC]    
1 61687U 24195A   25017.89587912 -.00001606  00000+0 -84024-5 0  9990
2 61687  53.1577 276.3333 0001243  97.7643 262.3516 15.69706108 13722
STARLINK-11344 [DTC]    
1 61688U 24195B   25018.40033226 -.00000417  00000+0  14127-5 0  9998
2 61688  53.1567 273.7921 0000959  85.8003 274.3124 15.69701501 13794
STARLINK-11312 [DTC]    
1 61689U 24195C   25018.01339140  .00002426  00000+0  24863-4 0  9998
2 61689  53.1571 275.6432 0001025  75.9758 284.1373 15.69725441 13738
STARLINK-11340 [DTC]    
1 61690U 24195D   25017.94483013  .00000049  00000+0  52658-5 0  9993
2 61690  53.1579 275.9260 0001542  55.7420 304.3743 15.69710755 13734
STARLINK-11339 [DTC]    
1 61691U 24195E   25018.12604155 -.00001046  00000+0 -37820-5 0  9991
2 61691  53.1571 274.9150 0001172  76.7838 283.3310 15.69684436 13753
STARLINK-11315 [DTC]    
1 61692U 24195F   25018.00358697  .00000068  00000+0  54190-5 0  9996
2 61692  53.1582 275.5799 0001063 106.9207 253.1927 15.69719096 13746
STARLINK-11366 [DTC]    
1 61693U 24195G   25017.99377655  .00000091  00000+0  56081-5 0  9996
2 61693  53.1562 275.5132 0001213  95.0361 265.0795 15.69710968 13746
STARLINK-11348 [DTC]    
1 61694U 24195H   25017.98886231  .00008382  00000+0  73894-4 0  9992
2 61694  53.1549 275.4785 0001130  52.8516 307.2605 15.69737044 13749
STARLINK-11327 [DTC]    
1 61695U 24195J   25017.92030196  .00001740  00000+0  19221-4 0  9993
2 61695  53.1566 275.7613 0000911  80.6378 279.4743 15.69703643 13722
STARLINK-11341 [DTC]    
1 61696U 24195K   25017.91539688 -.00000015  00000+0  47365-5 0  9999
2 61696  53.1578 275.7233 0001474  98.3093 261.8092 15.69705401 13736
STARLINK-11346 [DTC]    
1 61697U 24195L   25018.10149937 -.00000925  00000+0 -27754-5 0  9997
2 61697  53.1573 274.7509 0001278  95.9845 264.1318 15.69706545 13767
STARLINK-11336 [DTC]    
1 61698U 24195M   25017.94430357 -.00001614  00000+0 -58651-5 0  9994
2 61698  53.1575 272.9941 0001435 115.1630 244.9540 15.76724915 13775
STARLINK-11296 [DTC]    
1 61699U 24195N   25018.09168592  .00000761  00000+0  11144-4 0  9996
2 61699  53.1567 274.6843 0001214  86.2405 273.8751 15.69711655 13763
STARLINK-32349          
1 61700U 24195P   25018.15261339 -.00001770  00000+0 -34263-4 0  9999
2 61700  53.1592 288.8469 0002444 117.8857 242.2396 15.39612316 13411
STARLINK-32461          
1 61701U 24195Q   25018.02244185  .00001766  00000+0  54113-4 0  9995
2 61701  53.1594 289.4603 0000694 108.4560 251.6520 15.39620604 13392
STARLINK-32299          
1 61702U 24195R   25018.01813661  .00004788  00000+0  12966-3 0  9992
2 61702  53.1591 289.4289 0000967  89.0787 271.0329 15.39602967 13551
STARLINK-32335          
1 61703U 24195S   25018.21255170 -.00002867  00000+0 -61733-4 0  9995
2 61703  53.1589 288.5098 0000951 111.3995 248.7111 15.39618861 13583
STARLINK-32387          
1 61704U 24195T   25018.14300801  .00003182  00000+0  89584-4 0  9993
2 61704  53.1597 288.7908 0001324  66.4450 293.6694 15.39588980 13411
STARLINK-32515          
1 61705U 24195U   25017.94393468  .00002963  00000+0  84055-4 0  9996
2 61705  53.1594 289.6774 0001028  47.9429 312.1663 15.39612989 13398
STARLINK-32533          
1 61706U 24195V   25017.16960517  .00001916  00000+0  57872-4 0  9990
2 61706  53.1599 293.3810 0001199  94.7622 265.3520 15.39618429 13364
STARLINK-32376          
1 61707U 24196A   25017.89297828  .00001130  00000+0  38217-4 0  9990
2 61707  53.1576 233.5762 0001173  99.5046 260.6092 15.39623047 13495
STARLINK-32402          
1 61708U 24196B   25017.99031063 -.00002817  00000+0 -60502-4 0  9996
2 61708  53.1593 232.7594 0001106  84.9903 275.1228 15.39605954 13528
STARLINK-32314          
1 61709U 24196C   25017.91112791  .00000183  00000+0  14564-4 0  9996
2 61709  53.1591 232.9749 0001195  84.6505 275.4636 15.39608819 13286
STARLINK-32404          
1 61710U 24196D   25017.87870966  .00000864  00000+0  31580-4 0  9991
2 61710  53.1584 233.4853 0001085  81.5519 278.5609 15.39621818 13481
STARLINK-32312          
1 61711U 24196E   25018.29165852  .00000378  00000+0  19435-4 0  9995
2 61711  53.1584 231.0812 0001319  91.0682 269.0474 15.39621013 13570
STARLINK-32343          
1 61712U 24196F   25017.86975997  .00000510  00000+0  22729-4 0  9995
2 61712  53.1580 233.4283 0000899  86.0299 274.0808 15.39615136 13481
STARLINK-32467          
1 61713U 24196G   25018.01783726 -.00000787  00000+0 -97031-5 0  9998
2 61713  53.1581 232.9300 0001070  84.0606 276.0520 15.39611955 13285
STARLINK-32440          
1 61714U 24196H   25018.31951477  .00002857  00000+0  81383-4 0  9992
2 61714  53.1589 231.2564 0000972 106.5590 253.5522 15.39613606 13254
STARLINK-32459          
1 61715U 24196J   25018.31023437  .00000096  00000+0  12390-4 0  9994
2 61715  53.1586 231.1949 0001196  84.9443 275.1699 15.39617467 13460
